[{"OBJECT_NAME":"OBJECT AS","OBJECT_ID":"2023-085AS","EPOCH":"2026-03-09T22:43:55.521696","MEAN_MOTION":15.33336233,"ECCENTRICITY":0.00083243,"INCLINATION":97.4812,"RA_OF_ASC_NODE":180.8852,"ARG_OF_PERICENTER":80.6036,"MEAN_ANOMALY":279.6147,"EPHEMERIS_TYPE":0,"CLASSIFICATION_TYPE":"U","NORAD_CAT_ID":57044,"ELEMENT_SET_NO":999,"REV_AT_EPOCH":15162,"BSTAR":0.00067677795,"MEAN_MOTION_DOT":0.00021782,"MEAN_MOTION_DDOT":0},{"OBJECT_NAME":"STARLINK-33764","OBJECT_ID":"2025-071T","EPOCH":"2026-03-09T11:41:26.787840","MEAN_MOTION":15.30193252,"ECCENTRICITY":0.00012085,"INCLINATION":53.1574,"RA_OF_ASC_NODE":141.1988,"ARG_OF_PERICENTER":82.0317,"MEAN_ANOMALY":278.0821,"EPHEMERIS_TYPE":0,"CLASSIFICATION_TYPE":"U","NORAD_CAT_ID":63510,"ELEMENT_SET_NO":999,"REV_AT_EPOCH":5271,"BSTAR":0.0008423566,"MEAN_MOTION_DOT":0.00024667,"MEAN_MOTION_DDOT":0}]
